API VERSION: 1.2
API SOURCE: NASA/JPL Horizons API



*******************************************************************************
Ephemeris / API_USER Wed Apr 15 10:20:00 2026 Pasadena, USA      / Horizons
*******************************************************************************
Target body name: Mars (499)                      {source: mar099}
Center body name: Earth (399)                     {source: DE441}
Center-site name: BODY CENTER
*******************************************************************************
Start time      : A.D. 2025-Aug-08 11:29:00.0000 TDB
Stop  time      : A.D. 2025-Aug-10 11:29:00.0000 TDB
Step-size       : 60 minutes
*******************************************************************************
Center geodetic : 0.0, 0.0, 0.0                   {E-lon(deg),Lat(deg),Alt(km)}
Center cylindric: 0.0, 0.0, 0.0                   {E-lon(deg),Dxy(km),Dz(km)}
Center radii    : 6378.137, 6378.137, 6356.752 km {Equator_a, b, pole_c}
Output units    : AU-D
Calendar mode   : Mixed Julian/Gregorian
Output type     : GEOMETRIC cartesian states
Output format   : 3 (position, velocity, LT, range, range-rate)
EOP file        : eop.260414.p260711
EOP coverage    : DATA-BASED 1962-JAN-20 TO 2026-APR-14. PREDICTS-> 2026-JUL-10
Reference frame : Ecliptic of J2000.0
*******************************************************************************
            JDTDB,            Calendar Date (TDB),                      X,                      Y,                      Z,                     VX,                     VY,                     VZ,                     LT,                     RG,                     RR,
**************************************************************************************************************************************************************************************************************************************************************************
$$SOE
2460895.978472222, A.D. 2025-Aug-08 11:29:00.0000, -2.157272479407211E+00, -2.204797819384116E-02,  1.976106169258533E-02, -4.827456242028605E-03, -2.354319811923484E-02, -4.035493084227217E-04,  1.246054014340474E-02,  2.157475646052439E+00,  5.063901357323478E-03,
2460896.020138889, A.D. 2025-Aug-08 12:29:00.0000, -2.157473356146657E+00, -2.302907241731976E-02,  1.974424600731543E-02, -4.814626446610784E-03, -2.354932342183336E-02, -4.036035835792429E-04,  1.246175850120949E-02,  2.157686598167009E+00,  5.061800223283917E-03,
2460896.061805556, A.D. 2025-Aug-08 13:29:00.0000, -2.157673698210641E+00, -2.401042171351739E-02,  1.972742806065803E-02, -4.801791818431784E-03, -2.355544160976574E-02, -4.036578560237089E-04,  1.246297635344168E-02,  2.157897462744403E+00,  5.059699570900940E-03,
2460896.103472222, A.D. 2025-Aug-08 14:29:00.0000, -2.157873505397646E+00, -2.499202578592747E-02,  1.971060785261954E-02, -4.788952351168421E-03, -2.356155267873318E-02, -4.037121302763431E-04,  1.246419370021592E-02,  2.158108239804466E+00,  5.057599390290637E-03,
2460896.145138889, A.D. 2025-Aug-08 15:29:00.0000, -2.158072777506040E+00, -2.597388433775474E-02,  1.969378538310288E-02, -4.776108045849214E-03, -2.356765662050296E-02, -4.037664067335233E-04,  1.246541054164528E-02,  2.158318929366775E+00,  5.055499678905088E-03,
2460896.186805556, A.D. 2025-Aug-08 16:29:00.0000, -2.158271514334372E+00, -2.695599707190421E-02,  1.967696065206537E-02, -4.763258909779682E-03, -2.357375342981480E-02, -4.038206826478789E-04,  1.246662687784303E-02,  2.158529531450943E+00,  5.053400440525647E-03,
2460896.228472222, A.D. 2025-Aug-08 17:29:00.0000, -2.158469715681572E+00, -2.793836369119183E-02,  1.966013365961189E-02, -4.750404953244627E-03, -2.357984310793730E-02, -4.038749540675836E-04,  1.246784270892380E-02,  2.158740046076817E+00,  5.051301682002654E-03,
2460896.270138889, A.D. 2025-Aug-08 18:29:00.0000, -2.158667381346981E+00, -2.892098389863090E-02,  1.964330440599524E-02, -4.737546184950615E-03, -2.358592566290168E-02, -4.039292182329534E-04,  1.246905803500380E-02,  2.158950473264518E+00,  5.049203408697639E-03,
2460896.311805556, A.D. 2025-Aug-08 19:29:00.0000, -2.158864511130201E+00, -2.990385739766990E-02,  1.962647289152344E-02, -4.724682608065433E-03, -2.359200110699162E-02, -4.039834754945483E-04,  1.247027285619990E-02,  2.159160813034283E+00,  5.047105620489161E-03,
2460896.353472222, A.D. 2025-Aug-08 20:29:00.0000, -2.159061104830806E+00, -3.088698389227471E-02,  1.960963911640816E-02, -4.711814218047246E-03, -2.359806945112487E-02, -4.040377301073286E-04,  1.247148717262808E-02,  2.159371065406189E+00,  5.045008309525634E-03,
2460896.395138889, A.D. 2025-Aug-08 21:29:00.0000, -2.159257162248067E+00, -3.187036308667666E-02,  1.959280308063637E-02, -4.698941006254678E-03, -2.360413069672606E-02, -4.040919878504959E-04,  1.247270098440170E-02,  2.159581230399868E+00,  5.042911463731172E-03,
2460896.436805556, A.D. 2025-Aug-08 22:29:00.0000, -2.159452683180958E+00, -3.285399468499223E-02,  1.957596478399788E-02, -4.686062968073325E-03, -2.361018483755354E-02, -4.041462518896475E-04,  1.247391429163160E-02,  2.159791308034511E+00,  5.040815074970656E-03,
2460896.478472222, A.D. 2025-Aug-08 23:29:00.0000, -2.159647667428410E+00, -3.383787839101150E-02,  1.955912422623581E-02, -4.673180106323574E-03, -2.361623186537115E-02, -4.042005213388848E-04,  1.247512709442753E-02,  2.160001298329118E+00,  5.038719142538871E-03,
2460896.520138889, A.D. 2025-Aug-09 00:29:00.0000, -2.159842114789605E+00, -3.482201390827195E-02,  1.954228140719251E-02, -4.660292429280867E-03, -2.362227177722841E-02, -4.042547927370151E-04,  1.247633939289981E-02,  2.160211201302793E+00,  5.036623671280866E-03,
2460896.561805556, A.D. 2025-Aug-09 01:29:00.0000, -2.160036025064102E+00, -3.580640094032955E-02,  1.952543632686564E-02, -4.647399946351666E-03, -2.362830457671727E-02, -4.043090623838305E-04,  1.247755118716018E-02,  2.160421016974881E+00,  5.034528667283025E-03,
2460896.603472222, A.D. 2025-Aug-09 02:29:00.0000, -2.160229398051819E+00, -3.679103919101465E-02,  1.950858898538220E-02, -4.634502664433614E-03, -2.363433027351738E-02, -4.043633282151517E-04,  1.247876247732162E-02,  2.160630745364946E+00,  5.032434134226793E-03,
2460896.645138889, A.D. 2025-Aug-09 03:29:00.0000, -2.160422233552817E+00, -3.777592836465648E-02,  1.949173938287590E-02, -4.621600583147529E-03, -2.364034888056762E-02, -4.044175921242140E-04,  1.247997326349719E-02,  2.160840386492561E+00,  5.030340068567706E-03,
2460896.686805556, A.D. 2025-Aug-09 04:29:00.0000, -2.160614531366991E+00, -3.876106816603802E-02,  1.947488751932807E-02, -4.608693695303397E-03, -2.364636040556498E-02, -4.044718592026212E-04,  1.248118354579822E-02,  2.161049940377006E+00,  5.028246459863104E-03,
2460896.728472222, A.D. 2025-Aug-09 05:29:00.0000, -2.160806291293874E+00, -3.974645830007493E-02,  1.945803339448817E-02, -4.595781991983456E-03, -2.365236484703017E-02, -4.045261348443353E-04,  1.248239332433317E-02,  2.161259407037056E+00,  5.026153295792962E-03,
2460896.770138889, A.D. 2025-Aug-09 06:29:00.0000, -2.160997513132738E+00, -4.073209847145767E-02,  1.944117700794899E-02, -4.582865470663831E-03, -2.365836219667653E-02, -4.045804206430802E-04,  1.248360259920810E-02,  2.161468786491079E+00,  5.024060570336632E-03,
2460896.811805556, A.D. 2025-Aug-09 07:29:00.0000, -2.161188196682907E+00, -4.171798838453768E-02,  1.942431835932074E-02, -4.569944135806774E-03, -2.366435244776403E-02, -4.046347145892665E-04,  1.248481137052861E-02,  2.161678078757355E+00,  5.021968284507192E-03,
2460896.853472222, A.D. 2025-Aug-09 08:29:00.0000, -2.161378341743982E+00, -4.270412774349391E-02,  1.940745744833904E-02, -4.557017995783087E-03, -2.367033559912260E-02, -4.046890129230210E-04,  1.248601963840103E-02,  2.161887283854297E+00,  5.019876443342240E-03,
2460896.895138889, A.D. 2025-Aug-09 09:29:00.0000, -2.161567948115938E+00, -4.369051625260229E-02,  1.939059427489965E-02, -4.544087059194947E-03, -2.367631165658925E-02, -4.047433121439008E-04,  1.248722740293306E-02,  2.162096401800553E+00,  5.017785052253938E-03,
2460896.936805556, A.D. 2025-Aug-09 10:29:00.0000, -2.161757015599021E+00, -4.467715361650654E-02,  1.937372883899368E-02, -4.531151329936325E-03, -2.368228063145734E-02, -4.047976114994527E-04,  1.248843466423326E-02,  2.162305432614918E+00,  5.015694112055221E-03,
2460896.978472222, A.D. 2025-Aug-09 11:29:00.0000, -2.161945543993491E+00, -4.566403954035480E-02,  1.935686114056556E-02, -4.518210804640562E-03, -2.368824253551749E-02, -4.048519140187981E-04,  1.248964142240949E-02,  2.162514376316068E+00,  5.013603616308399E-03,
2460897.020138889, A.D. 2025-Aug-09 12:29:00.0000, -2.162133533099328E+00, -4.665117372966109E-02,  1.933999117936636E-02, -4.505265473729283E-03, -2.369419737329178E-02, -4.049062254929123E-04,  1.249084767756725E-02,  2.162723232922270E+00,  5.011513552215614E-03,
2460897.061805556, A.D. 2025-Aug-09 13:29:00.0000, -2.162320982716114E+00, -4.763855588992136E-02,  1.932311895492314E-02, -4.492315329490883E-03, -2.370014513993729E-02, -4.049605501234892E-04,  1.249205342980896E-02,  2.162932002451257E+00,  5.009423908667526E-03,
2460897.103472222, A.D. 2025-Aug-09 14:29:00.0000, -2.162507892643254E+00, -4.862618572632325E-02,  1.930624446666833E-02, -4.479360371231426E-03, -2.370608582676214E-02, -4.050148881649753E-04,  1.249325867923517E-02,  2.163140684920439E+00,  5.007334681513101E-03,
2460897.145138889, A.D. 2025-Aug-09 15:29:00.0000, -2.162694262680267E+00, -4.961406294374279E-02,  1.928936771409719E-02, -4.466400604709962E-03, -2.371201942837392E-02, -4.050692366541171E-04,  1.249446342594628E-02,  2.163349280347198E+00,  5.005245873143150E-03,
2460897.186805556, A.D. 2025-Aug-09 16:29:00.0000, -2.162880092626982E+00, -5.060218724695995E-02,  1.927248869685772E-02, -4.453436038271936E-03, -2.371794594582026E-02, -4.051235916222273E-04,  1.249566767004365E-02,  2.163557788749089E+00,  5.003157488687995E-03,
